{
    "links": {
        "self": "http://www.neowsapp.com/rest/v1/neo/54016478?api_key=iIulBulltgU6a56xZRHN4H3l9WmuAYTsLGpBGhQ2"
    },
    "id": "54016478",
    "neo_reference_id": "54016478",
    "name": "(2020 GT1)",
    "designation": "2020 GT1",
    "nasa_jpl_url": "http://ssd.jpl.nasa.gov/sbdb.cgi?sstr=54016478",
    "absolute_magnitude_h": 24.863,
    "estimated_diameter": {
        "kilometers": {
            "estimated_diameter_min": 0.0283109848,
            "estimated_diameter_max": 0.0633052865
        },
        "meters": {
            "estimated_diameter_min": 28.3109848006,
            "estimated_diameter_max": 63.305286524
        },
        "miles": {
            "estimated_diameter_min": 0.0175916249,
            "estimated_diameter_max": 0.0393360692
        },
        "feet": {
            "estimated_diameter_min": 92.8838113731,
            "estimated_diameter_max": 207.6945162394
        }
    },
    "is_potentially_hazardous_asteroid": false,
    "close_approach_data": [
        {
            "close_approach_date": "2020-03-19",
            "close_approach_date_full": "2020-Mar-19 22:22",
            "epoch_date_close_approach": 1584656520000,
            "relative_velocity": {
                "kilometers_per_second": "8.0747799947",
                "kilometers_per_hour": "29069.2079810034",
                "miles_per_hour": "18062.4753701962"
            },
            "miss_distance": {
                "astronomical": "0.0855258463",
                "lunar": "33.2695542107",
                "kilometers": "12794484.436427381",
                "miles": "7950123.9766486178"
            },
            "orbiting_body": "Earth"
        }
    ],
    "orbital_data": {
        "orbit_id": "3",
        "orbit_determination_date": "2020-04-17 06:30:09",
        "first_observation_date": "2020-04-03",
        "last_observation_date": "2020-04-16",
        "data_arc_in_days": 13,
        "observations_used": 21,
        "orbit_uncertainty": "9",
        "minimum_orbit_intersection": ".0854558",
        "jupiter_tisserand_invariant": "3.140",
        "epoch_osculation": "2458945.5",
        "eccentricity": ".5872007089020086",
        "semi_major_axis": "2.58610372028029",
        "inclination": "8.671275563952445",
        "ascending_node_longitude": "191.8356927165604",
        "orbital_period": "1519.033443186248",
        "perihelion_distance": "1.067541782437582",
        "perihelion_argument": "336.8662995560198",
        "aphelion_distance": "4.104665658122998",
        "perihelion_time": "2458918.784931373894",
        "mean_anomaly": "6.331279109448134",
        "mean_motion": ".2369928072451665",
        "equinox": "J2000",
        "orbit_class": {
            "orbit_class_type": "AMO",
            "orbit_class_description": "Near-Earth asteroid orbits similar to that of 1221 Amor",
            "orbit_class_range": "1.017 AU < q (perihelion) < 1.3 AU"
        }
    },
    "is_sentry_object": false
}